LANDSAT 9               
1 49260U 21088A   23208.74606449  .00000518  00000+0  12507-3 0  9996
2 49260  98.2281 278.1486 0001194 106.7959 253.3371 14.57092587 97302
